[{"OBJECT_NAME":"STARLINK-35916","OBJECT_ID":"2025-263V","EPOCH":"2026-03-08T19:39:42.958080","MEAN_MOTION":15.27594257,"ECCENTRICITY":6.423e-5,"INCLINATION":42.9965,"RA_OF_ASC_NODE":359.2903,"ARG_OF_PERICENTER":328.5572,"MEAN_ANOMALY":31.5241,"EPHEMERIS_TYPE":0,"CLASSIFICATION_TYPE":"U","NORAD_CAT_ID":66504,"ELEMENT_SET_NO":999,"REV_AT_EPOCH":1872,"BSTAR":0.0011589109,"MEAN_MOTION_DOT":0.0003178,"MEAN_MOTION_DDOT":0},{"OBJECT_NAME":"CZ-2D R\/B","OBJECT_ID":"2025-227B","EPOCH":"2026-03-09T22:11:26.043072","MEAN_MOTION":15.30393637,"ECCENTRICITY":0.00198129,"INCLINATION":80.1514,"RA_OF_ASC_NODE":267.3771,"ARG_OF_PERICENTER":270.3655,"MEAN_ANOMALY":89.5307,"EPHEMERIS_TYPE":0,"CLASSIFICATION_TYPE":"U","NORAD_CAT_ID":65946,"ELEMENT_SET_NO":999,"REV_AT_EPOCH":2254,"BSTAR":0.00032251975,"MEAN_MOTION_DOT":9.557e-5,"MEAN_MOTION_DDOT":0}]
